NORAD_CAT_ID,OBJECT_NAME,OBJECT_TYPE,EPOCH,MEAN_MOTION,ECCENTRICITY,INCLINATION,RA_OF_ASC_NODE,ARG_OF_PERICENTER,MEAN_ANOMALY,BSTAR,MEAN_MOTION_DOT,MEAN_MOTION_DDOT,TLE_LINE0,TLE_LINE1,TLE_LINE2,SEMIMAJOR_AXIS,PERIOD,APOGEE,PERIGEE,DECAYED
54079.0,STARLINK-5175,PAYLOAD,2022-12-31 09:44:43,15.08851898,9.32e-05,53.2158,161.0093,82.6079,277.5019,-9.2633e-06,-4.35e-06,0.0,0 STARLINK-5175,1 54079U 22136AE  22365.40606029 -.00000435  00000-0 -92633-5 0  9996,2 54079  53.2158 161.0093 0000932  82.6079 277.5019 15.08851898 11216,6917.844,95.437,540.354,539.064,0.0
54079.0,STARLINK-5175,PAYLOAD,2022-12-31 12:55:29,15.08853305,8.78e-05,53.2152,160.4159,86.7754,273.3339,3.2232e-05,2.25e-06,0.0,0 STARLINK-5175,1 54079U 22136AE  22365.53853583  .00000225  00000-0  32232-4 0  9992,2 54079  53.2152 160.4159 0000878  86.7754 273.3339 15.08853305 11719,6917.84,95.437,540.312,539.097,0.0
54079.0,STARLINK-5175,PAYLOAD,2022-12-31 19:17:02,15.08842591,9.93e-05,53.2149,159.2265,81.1585,278.9519,-5.3183e-05,-1.134e-05,0.0,0 STARLINK-5175,1 54079U 22136AE  22365.80350402 -.00001134  00000-0 -53183-4 0  9994,2 54079  53.2149 159.2265 0000993  81.1585 278.9519 15.08842591 11275,6917.871999999999,95.437,540.424,539.0509999999998,0.0
54079.0,STARLINK-5175,PAYLOAD,2023-01-01 12:46:17,15.08835032,0.0001087,53.2154,155.9567,75.7554,284.3559,-0.00012918,-2.343e-05,0.0,0 STARLINK-5175,1 54079U 22136AE  23001.53214975 -.00002343  00000-0 -12918-3 0  9999,2 54079  53.2154 155.9567 0001087  75.7554 284.3559 15.08835032 11861,6917.896,95.438,540.513,539.009,0.0
54079.0,STARLINK-5175,PAYLOAD,2023-01-01 19:07:49,15.08844689,0.0001254,53.2154,154.7672,86.6505,273.463,-0.00012024,-2.201e-05,0.0,0 STARLINK-5175,1 54079U 22136AE  23001.79710338 -.00002201  00000-0 -12024-3 0  9992,2 54079  53.2154 154.7672 0001254  86.6505 273.4630 15.08844689 11427,6917.866,95.437,540.599,538.864,0.0
54079.0,STARLINK-5175,PAYLOAD,2023-01-02 12:37:03,15.08847869,0.0001406999999999,53.2153,151.4959,82.009,278.1062,-7.2314e-05,-1.439e-05,0.0,0 STARLINK-5175,1 54079U 22136AE  23002.52573829 -.00001439  00000-0 -72314-4 0  9997,2 54079  53.2153 151.4959 0001407  82.0090 278.1062 15.08847869 11533,6917.856,95.437,540.695,538.748,0.0
54079.0,STARLINK-5175,PAYLOAD,2023-01-02 18:58:36,15.08845854,0.0001303,53.2155,150.3065,82.2639,277.8501,-0.00016516,-2.916e-05,0.0,0 STARLINK-5175,1 54079U 22136AE  23002.79070159 -.00002916  00000-0 -16516-3 0  9996,2 54079  53.2155 150.3065 0001303  82.2639 277.8501 15.08845854 11577,6917.861999999999,95.437,540.629,538.826,0.0
54079.0,STARLINK-5175,PAYLOAD,2023-01-03 02:55:32,15.08837559,0.0001217999999999,53.2156,148.8196,81.0589,279.0541,2.9237e-05,1.77e-06,0.0,0 STARLINK-5175,1 54079U 22136AE  23003.12190098  .00000177  00000-0  29237-4 0  9999,2 54079  53.2156 148.8196 0001218  81.0589 279.0541 15.08837559 12102,6917.888000000001,95.438,540.595,538.91,0.0
54079.0,STARLINK-5175,PAYLOAD,2023-01-03 15:38:38,15.08826981,0.0001291999999999,53.2157,146.4403,80.2339,279.8799,1.1009e-05,-1.13e-06,0.0,0 STARLINK-5175,1 54079U 22136AE  23003.65183047 -.00000113  00000-0  11009-4 0  9992,2 54079  53.2157 146.4403 0001292  80.2339 279.8799 15.08826981 12182,6917.92,95.438,540.679,538.891,0.0
54079.0,STARLINK-5175,PAYLOAD,2023-01-03 18:49:24,15.08831994,0.0001317,53.2159,145.8448,82.5445,277.5696,9.1321e-06,-1.43e-06,0.0,0 STARLINK-5175,1 54079U 22136AE  23003.78430780 -.00000143  00000-0  91321-5 0  9994,2 54079  53.2159 145.8448 0001317  82.5445 277.5696 15.08831994 11727,6917.905,95.438,540.681,538.859,0.0
54079.0,STARLINK-5175,PAYLOAD,2023-01-04 15:29:24,15.08844091,0.0001369,53.2155,141.97899999999996,81.6344,278.4803,3.8905e-05,3.31e-06,0.0,0 STARLINK-5175,1 54079U 22136AE  23004.64541952  .00000331  00000-0  38905-4 0  9990,2 54079  53.2155 141.9790 0001369  81.6344 278.4803 15.08844091 12335,6917.868,95.437,540.68,538.786,0.0
54079.0,STARLINK-5175,PAYLOAD,2023-01-05 12:09:24,15.08848291,0.0001240999999999,53.2163,138.1127,78.8464,281.2667,0.00013835,1.915e-05,0.0,0 STARLINK-5175,1 54079U 22136AE  23005.50652871  .00001915  00000-0  13835-3 0  9992,2 54079  53.2163 138.1127 0001241  78.8464 281.2667 15.08848291 12466,6917.855,95.437,540.5790000000002,538.862,0.0
54079.0,STARLINK-5175,PAYLOAD,2023-01-05 18:30:56,15.08840477,0.0001192,53.216,136.9254,66.4246,293.6871,0.00015174,2.128e-05,0.0,0 STARLINK-5175,1 54079U 22136AE  23005.77149164  .00002128  00000-0  15174-3 0  9992,2 54079  53.2160 136.9254 0001192  66.4246 293.6871 15.08840477 12020,6917.879,95.438,540.569,538.919,0.0
54079.0,STARLINK-5175,PAYLOAD,2023-01-06 12:00:12,15.08830015,0.0001171,53.2168,133.6499,101.0121,259.1003,-0.00010385,-1.94e-05,0.0,0 STARLINK-5175,1 54079U 22136AE  23006.50014779 -.00001940  00000-0 -10385-3 0  9999,2 54079  53.2168 133.6499 0001171 101.0121 259.1003 15.08830015 12614,6917.911,95.438,540.586,538.966,0.0
54079.0,STARLINK-5175,PAYLOAD,2023-01-07 00:43:18,15.08829981,0.0001156,53.217,131.2725,80.3734,279.7389,-7.6388e-05,-1.503e-05,0.0,0 STARLINK-5175,1 54079U 22136AE  23007.03006995 -.00001503  00000-0 -76388-4 0  9990,2 54079  53.2170 131.2725 0001156  80.3734 279.7389 15.08829981 12216,6917.911,95.438,540.576,538.976,0.0
54079.0,STARLINK-5175,PAYLOAD,2023-01-07 08:40:13,15.08837007,0.0001361999999999,53.2166,129.7884,51.9574,308.1541,-8.4541e-05,-1.633e-05,0.0,0 STARLINK-5175,1 54079U 22136AE  23007.36126738 -.00001633  00000-0 -84541-4 0  9998,2 54079  53.2166 129.7884 0001362  51.9574 308.1541 15.08837007 12747,6917.89,95.438,540.697,538.812,0.0
54079.0,STARLINK-5175,PAYLOAD,2023-01-07 15:01:45,15.08841519,0.0001434,53.216,128.5978,68.0967,292.0178,-5.8732e-05,-1.223e-05,0.0,0 STARLINK-5175,1 54079U 22136AE  23007.62622362 -.00001223  00000-0 -58732-4 0  9999,2 54079  53.2160 128.5978 0001434  68.0967 292.0178 15.08841519 12309,6917.876,95.437,540.7330000000002,538.749,0.0
54079.0,STARLINK-5175,PAYLOAD,2023-01-08 14:52:33,15.08825954,0.0001228,53.2162,124.1399,52.6912,307.4192,0.00015034,2.105e-05,0.0,0 STARLINK-5175,1 54079U 22136AE  23008.61983228  .00002105  00000-0  15034-3 0  9995,2 54079  53.2162 124.1399 0001228  52.6912 307.4192 15.08825954 12931,6917.923000000002,95.438,540.638,538.939,0.0
54079.0,STARLINK-5175,PAYLOAD,2023-01-09 00:24:52,15.08836405,0.0001337,53.2161,122.3534,58.3568,301.7555,9.8403e-05,1.278e-05,0.0,0 STARLINK-5175,1 54079U 22136AE  23009.01726889  .00001278  00000-0  98403-4 0  9990,2 54079  53.2161 122.3534 0001337  58.3568 301.7555 15.08836405 12991,6917.891,95.438,540.681,538.831,0.0
54079.0,STARLINK-5175,PAYLOAD,2023-01-09 09:57:11,15.08838719,0.0001333,53.2156,120.5704,61.7863,298.3264,4.2941e-05,3.96e-06,0.0,0 STARLINK-5175,1 54079U 22136AE  23009.41471070  .00000396  00000-0  42941-4 0  9999,2 54079  53.2156 120.5704 0001333  61.7863 298.3264 15.08838719 12578,6917.884,95.438,540.6709999999998,538.827,0.0
54079.0,STARLINK-5175,PAYLOAD,2023-01-10 12:58:44,15.08837371,0.0001250999999999,53.2166,115.5144,58.0177,302.0936,1.9533e-05,2.3e-07,0.0,0 STARLINK-5175,1 54079U 22136AE  23010.54079169  .00000023  00000-0  19533-4 0  9996,2 54079  53.2166 115.5144 0001251  58.0177 302.0936 15.08837371 13222,6917.888000000001,95.438,540.619,538.888,0.0
54079.0,STARLINK-5175,PAYLOAD,2023-01-11 12:49:32,15.0883177,0.0001585999999999,53.2158,111.0521,73.7635,286.3531,-5.6458e-05,-1.186e-05,0.0,0 STARLINK-5175,1 54079U 22136AE  23011.53440225 -.00001186  00000-0 -56458-4 0  9991,2 54079  53.2158 111.0521 0001586  73.7635 286.3531 15.08831770 13375,6917.906,95.438,540.868,538.673,0.0
54079.0,STARLINK-5175,PAYLOAD,2023-01-12 15:51:05,15.08848084,0.0001416999999999,53.2147,105.9982,74.4119,285.703,-8.8709e-05,-1.7e-05,0.0,0 STARLINK-5175,1 54079U 22136AE  23012.66047818 -.00001700  00000-0 -88709-4 0  9993,2 54079  53.2147 105.9982 0001417  74.4119 285.7030 15.08848084 13546,6917.856,95.437,540.701,538.74,0.0
54079.0,STARLINK-5175,PAYLOAD,2023-01-13 12:31:06,15.08835352,0.0001227,53.2157,102.1327,84.7661,275.3472,8.0434e-05,9.92e-06,0.0,0 STARLINK-5175,1 54079U 22136AE  23013.52160324  .00000992  00000-0  80434-4 0  9994,2 54079  53.2157 102.1327 0001227  84.7661 275.3472 15.08835352 13677,6917.895,95.438,540.6080000000001,538.911,0.0
54079.0,STARLINK-5175,PAYLOAD,2023-01-13 15:41:52,15.08839548,0.0001269,53.2162,101.5364,87.0612,273.0525,0.00011429,1.531e-05,0.0,0 STARLINK-5175,1 54079U 22136AE  23013.65407950  .00001531  00000-0  11429-3 0  9994,2 54079  53.2162 101.5364 0001269  87.0612 273.0525 15.08839548 13210,6917.882,95.438,540.625,538.869,0.0
54079.0,STARLINK-5175,PAYLOAD,2023-01-14 06:00:22,15.08830427,0.0001666999999999,53.2149,98.8593,93.753,266.3653,-1.3844000000000002e-05,-5.08e-06,0.0,0 STARLINK-5175,1 54079U 22136AE  23014.25025725 -.00000508  00000-0 -13844-4 0  9996,2 54079  53.2149  98.8593 0001667  93.7530 266.3653 15.08830427 13788,6917.91,95.438,540.928,538.621,0.0
54079.0,STARLINK-5175,PAYLOAD,2023-01-14 12:21:54,15.08834579,0.0001294,53.2157,97.6729,86.9448,273.1692,4.1829e-05,3.78e-06,0.0,0 STARLINK-5175,1 54079U 22136AE  23014.51520971  .00000378  00000-0  41829-4 0  9995,2 54079  53.2157  97.6729 0001294  86.9448 273.1692 15.08834579 13829,6917.897,95.438,540.6569999999999,538.867,0.0
54079.0,STARLINK-5175,PAYLOAD,2023-01-15 12:12:39,15.08860562,0.0002391,53.2164,93.2108,100.5374,259.5888,0.00013217,1.817e-05,0.0,0 STARLINK-5175,1 54079U 22136AE  23015.50879224  .00001817  00000-0  13217-3 0  9991,2 54079  53.2164  93.2108 0002391 100.5374 259.5888 15.08860562 13972,6917.818,95.436,541.337,538.028,0.0
54079.0,STARLINK-5175,PAYLOAD,2023-01-15 21:44:58,15.08855062,0.0001486,53.217,91.425,88.7661,271.3502,5.4553e-05,5.81e-06,0.0,0 STARLINK-5175,1 54079U 22136AE  23015.90623496  .00000581  00000-0  54553-4 0  9999,2 54079  53.2170  91.4250 0001486  88.7661 271.3502 15.08855062 13555,6917.834,95.437,540.727,538.6709999999999,0.0
